KUIPER-00027            
1 63740U 25088S   25205.56278116  .00007581  00000+0  20931-3 0  9991
2 63740  51.8717  39.3111 0001833  91.1705 268.9492 15.38073828 13624
KUIPER-00028            
1 63741U 25088T   25205.81399395  .00000411  00000+0  21095-4 0  9991
2 63741  51.8698  37.9921 0001544  60.5675 299.5466 15.38181241 14071
KUIPER-00029            
1 63742U 25088U   25205.80206281  .00015294  00000+0  42582-3 0  9990
2 63742  51.8696  38.6418 0005092  71.9078 288.2463 15.36990782 13598
KUIPER-00030            
1 63743U 25088V   25205.83335648 -.00005965  00000+0 -32519-3 0  9999
2 63743  51.8860  41.9668 0012273  48.6048 262.5192 15.12021680 13829
KUIPER-00031            
1 63744U 25088W   25205.77172210  .00013463  00000+0  36779-3 0  9999
2 63744  51.8701  38.4496 0004145  67.1618 292.9806 15.37699642 13591
KUIPER-00032            
1 63745U 25088X   25205.72307148 -.00083820  00000+0 -22733-2 0  9995
2 63745  51.8700  38.8614 0005019  43.4545 316.6836 15.37274910 14588
KUIPER-00033            
1 63746U 25088Y   25205.30885271  .00002111  00000+0  30688-3 0  9999
2 63746  51.9017  56.4961 0003407 129.6711 230.4552 14.79792740 13783
KUIPER-00034            
1 63747U 25088Z   25205.81813845  .00015522  00000+0  42051-3 0  9991
2 63747  51.8716  38.0216 0002178  85.7633 274.3603 15.37836258 13767
